NORAD_CAT_ID,OBJECT_NAME,OBJECT_TYPE,EPOCH,MEAN_MOTION,ECCENTRICITY,INCLINATION,RA_OF_ASC_NODE,ARG_OF_PERICENTER,MEAN_ANOMALY,BSTAR,MEAN_MOTION_DOT,MEAN_MOTION_DDOT,TLE_LINE0,TLE_LINE1,TLE_LINE2,SEMIMAJOR_AXIS,PERIOD,APOGEE,PERIGEE,DECAYED
54005.0,STARLINK-5135,PAYLOAD,2023-05-28 21:06:24,15.08835027,0.0001239,53.2167,93.9927,85.0739,275.0395,0.00011375,1.523e-05,0.0,0 STARLINK-5135,1 54005U 22125AT  23148.87945568  .00001523  00000-0  11375-3 0  9997,2 54005  53.2167  93.9927 0001239  85.0739 275.0395 15.08835027 36117,6917.896,95.438,540.618,538.903,0.0
54005.0,STARLINK-5135,PAYLOAD,2023-05-29 01:52:34,15.08837525,0.0001239,53.2176,93.1024,88.6874,271.426,0.0001329,1.828e-05,0.0,0 STARLINK-5135,1 54005U 22125AT  23149.07817409  .00001828  00000-0  13290-3 0  9998,2 54005  53.2176  93.1024 0001239  88.6874 271.4260 15.08837525 36190,6917.888,95.438,540.61,538.896,0.0
54005.0,STARLINK-5135,PAYLOAD,2023-05-29 03:27:57,15.08838836,0.0001254,53.2172,92.8033,82.9598,277.1536,0.00013383,1.843e-05,0.0,0 STARLINK-5135,1 54005U 22125AT  23149.14441335  .00001843  00000-0  13383-3 0  9997,2 54005  53.2172  92.8033 0001254  82.9598 277.1536 15.08838836 36150,6917.884,95.438,540.616,538.881,0.0
54005.0,STARLINK-5135,PAYLOAD,2023-05-29 20:57:12,15.08852818,0.0001389,53.2179,89.5355,93.3428,266.7723,-0.00028118,-4.762e-05,0.0,0 STARLINK-5135,1 54005U 22125AT  23149.87306075 -.00004762  00000-0 -28118-3 0  9995,2 54005  53.2179  89.5355 0001389  93.3428 266.7723 15.08852818 36264,6917.841,95.437,540.667,538.745,0.0
54005.0,STARLINK-5135,PAYLOAD,2023-05-30 01:43:22,15.08834272,0.0001303,53.2165,88.6403,84.0204,276.0937,-5.7741e-05,-1.207e-05,0.0,0 STARLINK-5135,1 54005U 22125AT  23150.07178396 -.00001207  00000-0 -57741-4 0  9998,2 54005  53.2165  88.6403 0001303  84.0204 276.0937 15.08834272 36342,6917.898,95.438,540.664,538.861,0.0
54005.0,STARLINK-5135,PAYLOAD,2023-05-30 04:54:08,15.08839387,0.000134,53.2167,88.0449,82.0731,278.0413,-9.1946e-05,-1.751e-05,0.0,0 STARLINK-5135,1 54005U 22125AT  23150.20426198 -.00001751  00000-0 -91946-4 0  9998,2 54005  53.2167  88.0449 0001340  82.0731 278.0413 15.08839387 36312,6917.882,95.438,540.674,538.82,0.0
54005.0,STARLINK-5135,PAYLOAD,2023-05-31 01:34:07,15.0884849,0.0001151,53.2175,84.1772,85.392,274.7203,0.00010036,1.31e-05,0.0,0 STARLINK-5135,1 54005U 22125AT  23151.06537028  .00001310  00000-0  10036-3 0  9997,2 54005  53.2175  84.1772 0001151  85.3920 274.7203 15.08848490 36497,6917.854,95.437,540.516,538.923,0.0
54005.0,STARLINK-5135,PAYLOAD,2023-05-31 04:44:53,15.0885257,0.0001214,53.2175,83.5819,87.872,272.2411,0.00013002,1.783e-05,0.0,0 STARLINK-5135,1 54005U 22125AT  23151.19784645  .00001783  00000-0  13002-3 0  9990,2 54005  53.2175  83.5819 0001214  87.8720 272.2411 15.08852570 36462,6917.842,95.437,540.547,538.867,0.0
54005.0,STARLINK-5135,PAYLOAD,2023-05-31 20:38:46,15.08833752,0.0001182,53.2178,80.6072,101.7179,258.3946,6.6458e-05,7.7e-06,0.0,0 STARLINK-5135,1 54005U 22125AT  23151.86025919  .00000770  00000-0  66458-4 0  9995,2 54005  53.2178  80.6072 0001182 101.7179 258.3946 15.08833752 36562,6917.899,95.438,540.582,538.947,0.0
54005.0,STARLINK-5135,PAYLOAD,2023-06-01 01:24:55,15.08840127,0.0001243,53.2179,79.7154,101.6059,258.5072,0.00011623,1.562e-05,0.0,0 STARLINK-5135,1 54005U 22125AT  23152.05897422  .00001562  00000-0  11623-3 0  9996,2 54005  53.2179  79.7154 0001243 101.6059 258.5072 15.08840127 36642,6917.88,95.438,540.605,538.885,0.0
54005.0,STARLINK-5135,PAYLOAD,2023-06-01 04:35:41,15.08843454,0.0001257,53.218,79.1204,99.9219,260.1915,0.00014155,1.966e-05,0.0,0 STARLINK-5135,1 54005U 22125AT  23152.19145172  .00001966  00000-0  14155-3 0  9990,2 54005  53.2180  79.1204 0001257  99.9219 260.1915 15.08843454 36614,6917.87,95.437,540.604,538.865,0.0
54005.0,STARLINK-5135,PAYLOAD,2023-06-02 01:15:43,15.08839386,0.0001247,53.2178,75.2544,106.7378,253.3751,-9.9013e-05,-1.863e-05,0.0,0 STARLINK-5135,1 54005U 22125AT  23153.05258126 -.00001863  00000-0 -99013-4 0  9995,2 54005  53.2178  75.2544 0001247 106.7378 253.3751 15.08839386 36797,6917.882,95.438,540.61,538.885,0.0
54005.0,STARLINK-5135,PAYLOAD,2023-06-02 18:44:57,15.08839651,0.0001243,53.2173,71.9852,96.5071,263.6063,1.3515e-05,-7.3e-07,0.0,0 STARLINK-5135,1 54005U 22125AT  23153.78121900 -.00000073  00000-0  13515-4 0  9998,2 54005  53.2173  71.9852 0001243  96.5071 263.6063 15.08839651 36851,6917.881,95.438,540.606,538.887,0.0
54005.0,STARLINK-5135,PAYLOAD,2023-06-03 04:17:15,15.08843189,0.0001259,53.2177,70.2006,100.1513,259.9621,4.9469e-05,5e-06,0.0,0 STARLINK-5135,1 54005U 22125AT  23154.17865557  .00000500  00000-0  49469-4 0  9996,2 54005  53.2177  70.2006 0001259 100.1513 259.9621 15.08843189 36969,6917.871,95.437,540.607,538.865,0.0
54005.0,STARLINK-5135,PAYLOAD,2023-06-03 21:46:30,15.08834906,0.0001287,53.2176,66.9293,98.6211,261.4927,5.4191e-05,5.75e-06,0.0,0 STARLINK-5135,1 54005U 22125AT  23154.90730201  .00000575  00000-0  54191-4 0  9994,2 54005  53.2176  66.9293 0001287  98.6211 261.4927 15.08834906 37027,6917.896,95.438,540.651,538.871,0.0
54005.0,STARLINK-5135,PAYLOAD,2023-06-04 00:57:16,15.08839359,0.0001065,53.2174,66.3366,90.2046,269.9068,7.6459e-05,9.29e-06,0.0,0 STARLINK-5135,1 54005U 22125AT  23155.03977912  .00000929  00000-0  76459-4 0  9995,2 54005  53.2174  66.3366 0001065  90.2046 269.9068 15.08839359 37091,6917.882,95.438,540.484,539.011,0.0
54005.0,STARLINK-5135,PAYLOAD,2023-06-04 13:40:22,15.08835641,0.0001071,53.2166,63.9562,97.0467,263.0647,2.2094e-05,6.4e-07,0.0,0 STARLINK-5135,1 54005U 22125AT  23155.56970379  .00000064  00000-0  22094-4 0  9999,2 54005  53.2166  63.9562 0001071  97.0467 263.0647 15.08835641 37124,6917.894,95.438,540.5,539.018,0.0
54005.0,STARLINK-5135,PAYLOAD,2023-06-04 21:37:17,15.08838687,0.0001085,53.2175,62.472,88.3127,271.7989,4.8402e-05,4.83e-06,0.0,0 STARLINK-5135,1 54005U 22125AT  23155.90090191  .00000483  00000-0  48402-4 0  9998,2 54005  53.2175  62.4720 0001085  88.3127 271.7989 15.08838687 37178,6917.884,95.438,540.5,538.999,0.0
54005.0,STARLINK-5135,PAYLOAD,2023-06-05 03:58:49,15.08845223,0.0001103,53.2174,61.2801,93.0241,267.0877,8.0587e-05,9.95e-06,0.0,0 STARLINK-5135,1 54005U 22125AT  23156.16585637  .00000995  00000-0  80587-4 0  9999,2 54005  53.2174  61.2801 0001103  93.0241 267.0877 15.08845223 37263,6917.864,95.437,540.492,538.966,0.0
54005.0,STARLINK-5135,PAYLOAD,2023-06-05 19:52:42,15.08835639,0.0001027,53.2174,58.3047,105.8378,254.2727,-1.2852e-05,-4.92e-06,0.0,0 STARLINK-5135,1 54005U 22125AT  23156.82826602 -.00000492  00000-0 -12852-4 0  9996,2 54005  53.2174  58.3047 0001027 105.8378 254.2727 15.08835639 37318,6917.894,95.438,540.469,539.048,0.0
54005.0,STARLINK-5135,PAYLOAD,2023-06-06 02:14:14,15.08840457,9.94e-05,53.2179,57.1179,90.0838,270.0268,1.4838e-05,-5.2e-07,0.0,0 STARLINK-5135,1 54005U 22125AT  23157.09322311 -.00000052  00000-0  14838-4 0  9991,2 54005  53.2179  57.1179 0000994  90.0838 270.0268 15.08840457 37404,6917.879,95.438,540.432,539.056,0.0
54005.0,STARLINK-5135,PAYLOAD,2023-06-07 02:05:01,15.08847138,9.84e-05,53.2174,52.6582,99.9522,260.1581,7.8781e-05,9.66e-06,0.0,0 STARLINK-5135,1 54005U 22125AT  23158.08681865  .00000966  00000-0  78781-4 0  9993,2 54005  53.2174  52.6582 0000984  99.9522 260.1581 15.08847138 37506,6917.859,95.437,540.404,539.043,0.0
54005.0,STARLINK-5135,PAYLOAD,2023-06-07 21:09:39,15.08834909,0.0001006,53.2175,49.0896,108.0093,252.1009,1.9274e-05,1.9e-07,0.0,0 STARLINK-5135,1 54005U 22125AT  23158.88170939  .00000019  00000-0  19274-4 0  9997,2 54005  53.2175  49.0896 0001006 108.0093 252.1009 15.08834909 37627,6917.896,95.438,540.457,539.065,0.0
54005.0,STARLINK-5135,PAYLOAD,2023-06-08 01:55:48,15.08840879,0.0001073,53.218,48.1974,77.643,282.4682,6.2877e-05,7.13e-06,0.0,0 STARLINK-5135,1 54005U 22125AT  23159.08042597  .00000713  00000-0  62877-4 0  9996,2 54005  53.2180  48.1974 0001073  77.6430 282.4682 15.08840879 37705,6917.878,95.437,540.485,539.0,0.0
54005.0,STARLINK-5135,PAYLOAD,2023-06-08 22:35:50,15.0883848,0.0001118,53.2179,44.3311,79.9597,280.1521,-3.1561e-06,-3.38e-06,0.0,0 STARLINK-5135,1 54005U 22125AT  23159.94155198 -.00000338  00000-0 -31561-5 0  9995,2 54005  53.2179  44.3311 0001118  79.9597 280.1521 15.08838480 37831,6917.885,95.438,540.523,538.977,0.0
54005.0,STARLINK-5135,PAYLOAD,2023-06-09 09:43:31,15.08843418,0.0001054,53.2179,42.2493,85.4318,274.6795,1.129e-05,-1.08e-06,0.0,0 STARLINK-5135,1 54005U 22125AT  23160.40522797 -.00000108  00000-0  11290-4 0  9991,2 54005  53.2179  42.2493 0001054  85.4318 274.6795 15.08843418 37851,6917.87,95.437,540.464,539.006,0.0
54005.0,STARLINK-5135,PAYLOAD,2023-06-09 19:15:50,15.08842769,0.0001052,53.218,40.4653,89.7157,270.3955,6.8393e-05,8.01e-06,0.0,0 STARLINK-5135,1 54005U 22125AT  23160.80266712  .00000801  00000-0  68393-4 0  9992,2 54005  53.2180  40.4653 0001052  89.7157 270.3955 15.08842769 37913,6917.872,95.437,540.465,539.009,0.0
54005.0,STARLINK-5135,PAYLOAD,2023-06-10 01:37:22,15.08846397,0.0001066,53.218,39.2756,91.9135,268.1979,9.5794e-05,1.237e-05,0.0,0 STARLINK-5135,1 54005U 22125AT  23161.06762333  .00001237  00000-0  95794-4 0  9990,2 54005  53.2180  39.2756 0001066  91.9135 268.1979 15.08846397 38002,6917.861,95.437,540.463,538.988,0.0
54005.0,STARLINK-5135,PAYLOAD,2023-06-10 22:17:23,15.08840088,0.0001058,53.218,35.4093,95.858,264.2533,5.7745e-05,6.31e-06,0.0,0 STARLINK-5135,1 54005U 22125AT  23161.92874806  .00000631  00000-0  57745-4 0  9995,2 54005  53.2180  35.4093 0001058  95.8580 264.2533 15.08840088 38084,6917.88,95.438,540.477,539.013,0.0
54005.0,STARLINK-5135,PAYLOAD,2023-06-11 01:28:10,15.08836114,0.0001305,53.2181,34.8144,105.0172,255.0965,0.00013639,1.883e-05,0.0,0 STARLINK-5135,1 54005U 22125AT  23162.06122876  .00001883  00000-0  13639-3 0  9997,2 54005  53.2181  34.8144 0001305 105.0172 255.0965 15.08836114 38151,6917.892,95.438,540.66,538.854,0.0
